STARLINK-31542          
1 59194U 24045S   26068.47876661 -.00000679  00000+0 -15163-4 0  9993
2 59194  43.0024  93.3421 0001265 268.1619  91.9087 15.27560483113136
FLOCK 4G-26             
1 62633U 25009AA  26068.80489479  .00011283  00000+0  42469-3 0  9999
2 62633  97.4054 151.3913 0001988 299.1273  60.9767 15.27281631 63733
